[{"OBJECT_NAME":"TRANSPORTER-10 OBJECT AD","OBJECT_ID":"2024-043AD","EPOCH":"2026-03-09T20:38:52.416960","MEAN_MOTION":15.34189901,"ECCENTRICITY":0.00089841,"INCLINATION":97.547,"RA_OF_ASC_NODE":207.3753,"ARG_OF_PERICENTER":221.4908,"MEAN_ANOMALY":138.5653,"EPHEMERIS_TYPE":0,"CLASSIFICATION_TYPE":"U","NORAD_CAT_ID":59125,"ELEMENT_SET_NO":999,"REV_AT_EPOCH":11202,"BSTAR":0.00036310552,"MEAN_MOTION_DOT":0.00011954,"MEAN_MOTION_DDOT":0},{"OBJECT_NAME":"STARLINK-31642","OBJECT_ID":"2024-088U","EPOCH":"2026-03-09T11:06:32.364576","MEAN_MOTION":15.30187317,"ECCENTRICITY":0.0001211,"INCLINATION":53.1608,"RA_OF_ASC_NODE":141.2302,"ARG_OF_PERICENTER":92.3922,"MEAN_ANOMALY":267.7217,"EPHEMERIS_TYPE":0,"CLASSIFICATION_TYPE":"U","NORAD_CAT_ID":59726,"ELEMENT_SET_NO":999,"REV_AT_EPOCH":10364,"BSTAR":2.3217733e-5,"MEAN_MOTION_DOT":3.28e-6,"MEAN_MOTION_DDOT":0}]
