TRANSPORTER-10 OBJECT AD
1 59125U 24043AD  26068.86032889  .00011954  00000+0  36311-3 0  9997
2 59125  97.5470 207.3753 0008984 221.4908 138.5653 15.34189901112026
STARLINK-31642          
1 59726U 24088U   26068.46287459  .00000328  00000+0  23218-4 0  9990
2 59726  53.1608 141.2302 0001211  92.3922 267.7217 15.30187317103641
